SIRION PATHFINDER-2     
1 43759U 18099B   26140.56274851  .00003511  00000+0  19531-3 0  9997
2 43759  97.4267 190.2795 0009702  44.9718 315.2298 15.14264907408448
CORVUS BC4              
1 43767U 18099K   26140.59823864  .00003183  00000+0  18765-3 0  9996
2 43767  97.4085 184.3885 0010090  96.7989 263.4390 15.12241662408231
M2 PATHFINDER           
1 45727U 20037E   26140.51415251  .00000978  00000+0  74278-4 0  9999
2 45727  97.8158 331.4369 0009999 242.7034 117.3174 15.04539315321334
NETSAT-4                
1 46504U 20068U   26140.50495121  .00012974  00000+0  29765-3 0  9999
2 46504  97.8615 146.5440 0007329  70.5726 289.6312 15.42850663311500
NETSAT-3                
1 46505U 20068V   26140.48959672  .00013386  00000+0  31977-3 0  9999
2 46505  97.8666 144.7796 0007407  83.4393 276.7696 15.41625957311418
NETSAT-1                
1 46506U 20068W   26140.41733253  .00009316  00000+0  28657-3 0  9997
2 46506  97.8753 139.3545 0006996 103.4241 256.7780 15.33892517311045
NETSAT-2                
1 46507U 20068X   26140.45112712  .00016356  00000+0  35203-3 0  9990
2 46507  97.8630 146.2853 0006270  93.6040 266.5924 15.44700262311452
GREENCUBE (IO-117)      
1 53109U 22080E   26140.48101738 -.00000003  00000+0  00000+0 0  9997
2 53109  70.1431 307.8842 0008837 296.2012  63.7739  6.42583336 90280
SITRO-AIS 5 (KATYS)     
1 57176U 23091L   26140.58522910  .00008427  00000+0  30374-3 0  9996
2 57176  97.5069 204.2348 0011467 191.7835 168.3138 15.28743862160126
SITRO-AIS 6 (CHIRKIN)   
1 57192U 23091AC  26140.56719311  .00006965  00000+0  27865-3 0  9991
2 57192  97.5077 203.4793 0011609 195.2149 164.8742 15.25345905160072
SITRO-AIS 8 (ANOKHIN)   
1 57193U 23091AD  26140.58406542  .00010218  00000+0  33996-3 0  9991
2 57193  97.5064 205.7128 0010778 187.3667 172.7418 15.31298406160224
SITRO-AIS 7 (FARTUSHNIY)
1 57194U 23091AE  26140.63042545  .00006551  00000+0  26464-3 0  9994
2 57194  97.5074 203.3818 0011414 196.0380 164.0498 15.25048166160077
SITRO-AIS 10 (BURDAEV)  
1 57199U 23091AK  26140.59876947  .00014271  00000+0  39025-3 0  9990
2 57199  97.5087 210.5044 0007705 161.2955 198.8574 15.37452566160523
SITRO-AIS 9 (SHCHUKIN)  
1 57201U 23091AM  26140.61672390  .00013688  00000+0  37994-3 0  9997
2 57201  97.5085 210.2737 0007921 161.6633 198.4898 15.36995844160512
SITRO-AIS 12 (SMIRENNIY)
1 57204U 23091AQ  26140.61250249  .00013978  00000+0  38442-3 0  9996
2 57204  97.5098 210.7195 0007686 156.2492 203.9108 15.37281806160538
SITRO-AIS 11 (SHEFFER)  
1 57208U 23091AU  26140.56822591  .00014258  00000+0  38708-3 0  9996
2 57208  97.5095 210.9040 0007593 156.2837 203.8759 15.37678084160540
SITRO-AIS 25            
1 59066U 24039R   26140.63699297  .00002861  00000+0  22321-3 0  9997
2 59066  95.3916 216.1629 0147177  64.8848 296.7565 14.93309025120619
SITRO-AIS 26            
1 59067U 24039S   26140.63464487  .00002842  00000+0  22272-3 0  9993
2 59067  95.3917 216.0646 0147504  65.4353 296.2164 14.93110667120602
SITRO-AIS 27            
1 59068U 24039T   26140.61256505  .00003196  00000+0  24812-3 0  9997
2 59068  95.3915 216.3085 0146463  64.2160 297.4095 14.93520741120623
SITRO-AIS 28            
1 59071U 24039U   26140.38964390  .00002734  00000+0  21250-3 0  9993
2 59071  95.3918 216.2010 0146335  64.7973 296.8343 14.93555214120590
GRBBETA                 
1 60237U 24128C   26140.47596127  .00002855  00000+0  20338-3 0  9997
2 60237  61.9903 313.4738 0044452 128.9324 231.5745 15.06384176102095
OOV-CUBE (TUBSAT-30)    
1 60240U 24128F   26140.50697815  .00001543  00000+0  12840-3 0  9993
2 60240  61.9944 322.0825 0048115 127.7411 232.8055 15.02614414101950
ROBUSTA-3A (MEDITERRAN*)
1 60243U 24128J   26140.48136337  .00005794  00000+0  34820-3 0  9994
2 60243  61.9869 306.1890 0045284 122.7286 237.8187 15.11189952102230
LASARSAT                
1 62391U 24247Q   26140.18172240  .00023734  00000+0  50705-3 0  9996
2 62391  44.9759  59.3627 0005684 171.8355 188.2628 15.44470942 78983
CROCUBE                 
1 62394U 24247T   26140.14683537  .00026334  00000+0  53126-3 0  9990
2 62394  44.9733  57.3164 0005420 174.7904 185.3043 15.46099852 79004
FORESAIL-1 PRIME        
1 66778U 25276DS  26140.45292150  .00003095  00000+0  15371-3 0  9993
2 66778  97.4206 214.2361 0002499 165.2765 194.8542 15.18414988 26199
KNACKSAT-2              
1 67683U 98067XZ  26140.07539703  .00035425  00000+0  47884-3 0  9999
2 67683  51.6305  75.5950 0012132  96.2152 264.0222 15.57316525 15898
