OBJECT_NAME,OBJECT_ID,EPOCH,MEAN_MOTION,ECCENTRICITY,INCLINATION,RA_OF_ASC_NODE,ARG_OF_PERICENTER,MEAN_ANOMALY,EPHEMERIS_TYPE,CLASSIFICATION_TYPE,NORAD_CAT_ID,ELEMENT_SET_NO,REV_AT_EPOCH,BSTAR,MEAN_MOTION_DOT,MEAN_MOTION_DDOT
SIRION PATHFINDER-2,2018-099B,2026-05-20T13:30:21.471264,15.14264907,.00097029,97.4267,190.2795,44.9718,315.2298,0,U,43759,999,40844,.19530541E-3,.3511E-4,0
CORVUS BC4,2018-099K,2026-05-20T14:21:27.818496,15.12241662,.00100908,97.4085,184.3885,96.7989,263.4390,0,U,43767,999,40823,.18764536E-3,.3183E-4,0
M2 PATHFINDER,2020-037E,2026-05-20T12:20:22.776864,15.04539315,.00099994,97.8158,331.4369,242.7034,117.3174,0,U,45727,999,32133,.74278328E-4,.978E-5,0
NETSAT-4,2020-068U,2026-05-20T12:07:07.784544,15.42850663,.00073298,97.8615,146.5440,70.5726,289.6312,0,U,46504,999,31150,.29765022E-3,.12974E-3,0
NETSAT-3,2020-068V,2026-05-20T11:45:01.156608,15.41625957,.00074079,97.8666,144.7796,83.4393,276.7696,0,U,46505,999,31141,.31976615E-3,.13386E-3,0
NETSAT-1,2020-068W,2026-05-20T10:00:57.530592,15.33892517,.0006996,97.8753,139.3545,103.4241,256.7780,0,U,46506,999,31104,.286572E-3,.9316E-4,0
NETSAT-2,2020-068X,2026-05-20T10:49:37.383168,15.44700262,.00062701,97.8630,146.2853,93.6040,266.5924,0,U,46507,999,31145,.35202748E-3,.16356E-3,0
GREENCUBE (IO-117),2022-080E,2026-05-20T11:32:39.901632,6.42583336,.00088379,70.1431,307.8842,296.2012,63.7739,0,U,53109,999,9028,0,-.3E-7,0
SITRO-AIS 5 (KATYS),2023-091L,2026-05-20T14:02:43.794240,15.28743862,.00114674,97.5069,204.2348,191.7835,168.3138,0,U,57176,999,16012,.30374051E-3,.8427E-4,0
SITRO-AIS 6 (CHIRKIN),2023-091AC,2026-05-20T13:36:45.484704,15.25345905,.00116093,97.5077,203.4793,195.2149,164.8742,0,U,57192,999,16007,.27864722E-3,.6965E-4,0
SITRO-AIS 8 (ANOKHIN),2023-091AD,2026-05-20T14:01:03.252288,15.31298406,.00107789,97.5064,205.7128,187.3667,172.7418,0,U,57193,999,16022,.33996363E-3,.10218E-3,0
SITRO-AIS 7 (FARTUSHNIY),2023-091AE,2026-05-20T15:07:48.758880,15.25048166,.00114141,97.5074,203.3818,196.0380,164.0498,0,U,57194,999,16007,.26463744E-3,.6551E-4,0
SITRO-AIS 10 (BURDAEV),2023-091AK,2026-05-20T14:22:13.682208,15.37452566,.00077057,97.5087,210.5044,161.2955,198.8574,0,U,57199,999,16052,.39024852E-3,.14271E-3,0
SITRO-AIS 9 (SHCHUKIN),2023-091AM,2026-05-20T14:48:04.944960,15.36995844,.00079218,97.5085,210.2737,161.6633,198.4898,0,U,57201,999,16051,.37994403E-3,.13688E-3,0
SITRO-AIS 12 (SMIRENNIY),2023-091AQ,2026-05-20T14:42:00.215136,15.37281806,.00076867,97.5098,210.7195,156.2492,203.9108,0,U,57204,999,16053,.38441937E-3,.13978E-3,0
SITRO-AIS 11 (SHEFFER),2023-091AU,2026-05-20T13:38:14.718624,15.37678084,.00075938,97.5095,210.9040,156.2837,203.8759,0,U,57208,999,16054,.38708042E-3,.14258E-3,0
SITRO-AIS 25,2024-039R,2026-05-20T15:17:16.192608,14.93309025,.01471778,95.3916,216.1629,64.8848,296.7565,0,U,59066,999,12061,.22321121E-3,.2861E-4,0
SITRO-AIS 26,2024-039S,2026-05-20T15:13:53.316768,14.93110667,.01475049,95.3917,216.0646,65.4353,296.2164,0,U,59067,999,12060,.22272418E-3,.2842E-4,0
SITRO-AIS 27,2024-039T,2026-05-20T14:42:05.620320,14.93520741,.01464634,95.3915,216.3085,64.2160,297.4095,0,U,59068,999,12062,.2481193E-3,.3196E-4,0
SITRO-AIS 28,2024-039U,2026-05-20T09:21:05.232960,14.93555214,.01463356,95.3918,216.2010,64.7973,296.8343,0,U,59071,999,12059,.21250006E-3,.2734E-4,0
GRBBETA,2024-128C,2026-05-20T11:25:23.053728,15.06384176,.00444525,61.9903,313.4738,128.9324,231.5745,0,U,60237,999,10209,.20338235E-3,.2855E-4,0
OOV-CUBE (TUBSAT-30),2024-128F,2026-05-20T12:10:02.912160,15.02614414,.00481155,61.9944,322.0825,127.7411,232.8055,0,U,60240,999,10195,.12839745E-3,.1543E-4,0
ROBUSTA-3A (MEDITERRANEE),2024-128J,2026-05-20T11:33:09.795168,15.11189952,.00452849,61.9869,306.1890,122.7286,237.8187,0,U,60243,999,10223,.34820379E-3,.5794E-4,0
LASARSAT,2024-247Q,2026-05-20T04:21:40.815360,15.44470942,.00056843,44.9759,59.3627,171.8355,188.2628,0,U,62391,999,7898,.50705105E-3,.23734E-3,0
CROCUBE,2024-247T,2026-05-20T03:31:26.575968,15.46099852,.00054203,44.9733,57.3164,174.7904,185.3043,0,U,62394,999,7900,.53126487E-3,.26334E-3,0
FORESAIL-1 PRIME,2025-276DS,2026-05-20T10:52:12.417600,15.18414988,.00024991,97.4206,214.2361,165.2765,194.8542,0,U,66778,999,2619,.15371282E-3,.3095E-4,0
KNACKSAT-2,1998-067XZ,2026-05-20T01:48:34.303392,15.57316525,.00121324,51.6305,75.5950,96.2152,264.0222,0,U,67683,999,1589,.47883759E-3,.35425E-3,0
